{"fetched_at":"2026-07-11T09:23:57.375Z","source":"https://celestrak.org/NORAD/elements/gp.php?GROUP=oneweb&FORMAT=JSON","constellation":"oneweb","records":[{"OBJECT_NAME":"ONEWEB-0291","OBJECT_ID":"2021-075G","EPOCH":"2026-07-10T09:35:38.585760","CLASSIFICATION_TYPE":"U","MEAN_MOTION":13.17646726,"ECCENTRICITY":0.00021549,"INCLINATION":87.9138,"RA_OF_ASC_NODE":1.2442,"ARG_OF_PERICENTER":85.5647,"MEAN_ANOMALY":274.5731,"EPHEMERIS_TYPE":0,"NORAD_CAT_ID":49081,"ELEMENT_SET_NO":999,"REV_AT_EPOCH":23666,"BSTAR":0.0001895981,"MEAN_MOTION_DOT":8.6e-7,"MEAN_MOTION_DDOT":0},{"OBJECT_NAME":"ONEWEB-0293","OBJECT_ID":"2021-075H","EPOCH":"2026-07-10T10:12:04.688064","CLASSIFICATION_TYPE":"U","MEAN_MOTION":13.17650176,"ECCENTRICITY":0.0001986,"INCLINATION":87.9132,"RA_OF_ASC_NODE":1.2417,"ARG_OF_PERICENTER":92.6934,"MEAN_ANOMALY":267.4425,"EPHEMERIS_TYPE":0,"NORAD_CAT_ID":49082,"ELEMENT_SET_NO":999,"REV_AT_EPOCH":23669,"BSTAR":0.00010243568,"MEAN_MOTION_DOT":5.3e-7,"MEAN_MOTION_DDOT":0},{"OBJECT_NAME":"ONEWEB-0294","OBJECT_ID":"2021-075J","EPOCH":"2026-07-09T16:01:53.516064","CLASSIFICATION_TYPE":"U","MEAN_MOTION":13.12442268,"ECCENTRICITY":0.000215,"INCLINATION":87.8963,"RA_OF_ASC_NODE":346.189,"ARG_OF_PERICENTER":99.4647,"MEAN_ANOMALY":260.6725,"EPHEMERIS_TYPE":0,"NORAD_CAT_ID":49083,"ELEMENT_SET_NO":999,"REV_AT_EPOCH":23752,"BSTAR":0.0006495348,"MEAN_MOTION_DOT":0.00000246,"MEAN_MOTION_DDOT":0},{"OBJECT_NAME":"ONEWEB-0295","OBJECT_ID":"2021-075K","EPOCH":"2026-07-10T10:10:52.352256","CLASSIFICATION_TYPE":"U","MEAN_MOTION":13.17649743,"ECCENTRICITY":0.00020599,"INCLINATION":87.9137,"RA_OF_ASC_NODE":1.2458,"ARG_OF_PERICENTER":84.2425,"MEAN_ANOMALY":275.8941,"EPHEMERIS_TYPE":0,"NORAD_CAT_ID":49084,"ELEMENT_SET_NO":999,"REV_AT_EPOCH":23665,"BSTAR":0.000033967937,"MEAN_MOTION_DOT":2.6e-7,"MEAN_MOTION_DDOT":0},{"OBJECT_NAME":"ONEWEB-0296","OBJECT_ID":"2021-075L","EPOCH":"2026-07-09T17:22:24.234240","CLASSIFICATION_TYPE":"U","MEAN_MOTION":13.1244374,"ECCENTRICITY":0.00021114,"INCLINATION":87.8967,"RA_OF_ASC_NODE":346.1863,"ARG_OF_PERICENTER":88.0069,"MEAN_ANOMALY":272.1302,"EPHEMERIS_TYPE":0,"NORAD_CAT_ID":49085,"ELEMENT_SET_NO":999,"REV_AT_EPOCH":23753,"BSTAR":0.0012780955,"MEAN_MOTION_DOT":0.00000473,"MEAN_MOTION_DDOT":0},{"OBJECT_NAME":"ONEWEB-0297","OBJECT_ID":"2021-075M","EPOCH":"2026-07-10T10:34:20.322336","CLASSIFICATION_TYPE":"U","MEAN_MOTION":13.12441333,"ECCENTRICITY":0.00018685,"INCLINATION":87.8952,"RA_OF_ASC_NODE":346.0512,"ARG_OF_PERICENTER":92.1527,"MEAN_ANOMALY":267.9816,"EPHEMERIS_TYPE":0,"NORAD_CAT_ID":49086,"ELEMENT_SET_NO":999,"REV_AT_EPOCH":23823,"BSTAR":-0.00011672757,"MEAN_MOTION_DOT":-2.9e-7,"MEAN_MOTION_DDOT":0},{"OBJECT_NAME":"ONEWEB-0298","OBJECT_ID":"2021-075N","EPOCH":"2026-07-10T10:17:10.066272","CLASSIFICATION_TYPE":"U","MEAN_MOTION":13.17648471,"ECCENTRICITY":0.00017471,"INCLINATION":87.9137,"RA_OF_ASC_NODE":1.2435,"ARG_OF_PERICENTER":88.8317,"MEAN_ANOMALY":271.3015,"EPHEMERIS_TYPE":0,"NORAD_CAT_ID":49087,"ELEMENT_SET_NO":999,"REV_AT_EPOCH":23668,"BSTAR":0.00013976788,"MEAN_MOTION_DOT":6.7e-7,"MEAN_MOTION_DDOT":0},{"OBJECT_NAME":"ONEWEB-0299","OBJECT_ID":"2021-075P","EPOCH":"2026-07-09T17:55:14.104128","CLASSIFICATION_TYPE":"U","MEAN_MOTION":13.17647788,"ECCENTRICITY":0.00018946,"INCLINATION":87.9146,"RA_OF_ASC_NODE":1.3614,"ARG_OF_PERICENTER":86.5254,"MEAN_ANOMALY":273.6095,"EPHEMERIS_TYPE":0,"NORAD_CAT_ID":49088,"ELEMENT_SET_NO":999,"REV_AT_EPOCH":23657,"BSTAR":0.000011671324,"MEAN_MOTION_DOT":1.7e-7,"MEAN_MOTION_DDOT":0},{"OBJECT_NAME":"ONEWEB-0300","OBJECT_ID":"2021-075Q","EPOCH":"2026-07-10T10:23:21.880032","CLASSIFICATION_TYPE":"U","MEAN_MOTION":13.12441606,"ECCENTRICITY":0.00014758,"INCLINATION":87.8964,"RA_OF_ASC_NODE":346.0351,"ARG_OF_PERICENTER":90.6395,"MEAN_ANOMALY":269.4903,"EPHEMERIS_TYPE":0,"NORAD_CAT_ID":49089,"ELEMENT_SET_NO":999,"REV_AT_EPOCH":23825,"BSTAR":0.00066887991,"MEAN_MOTION_DOT":0.00000253,"MEAN_MOTION_DDOT":0},{"OBJECT_NAME":"ONEWEB-0301","OBJECT_ID":"2021-075R","EPOCH":"2026-07-10T10:00:11.409408","CLASSIFICATION_TYPE":"U","MEAN_MOTION":13.1244319,"ECCENTRICITY":0.00014904,"INCLINATION":87.8962,"RA_OF_ASC_NODE":346.0355,"ARG_OF_PERICENTER":98.0696,"MEAN_ANOMALY":262.0602,"EPHEMERIS_TYPE":0,"NORAD_CAT_ID":49090,"ELEMENT_SET_NO":999,"REV_AT_EPOCH":23761,"BSTAR":0.0013043123,"MEAN_MOTION_DOT":0.00000482,"MEAN_MOTION_DDOT":0},{"OBJECT_NAME":"ONEWEB-0302","OBJECT_ID":"2021-075S","EPOCH":"2026-07-10T09:40:40.368000","CLASSIFICATION_TYPE":"U","MEAN_MOTION":13.1244233,"ECCENTRICITY":0.00021818,"INCLINATION":87.8959,"RA_OF_ASC_NODE":346.051,"ARG_OF_PERICENTER":95.4531,"MEAN_ANOMALY":264.6847,"EPHEMERIS_TYPE":0,"NORAD_CAT_ID":49091,"ELEMENT_SET_NO":999,"REV_AT_EPOCH":23759,"BSTAR":0.00031883202,"MEAN_MOTION_DOT":0.00000127,"MEAN_MOTION_DDOT":0},{"OBJECT_NAME":"ONEWEB-0304","OBJECT_ID":"2021-075T","EPOCH":"2026-07-10T09:42:54.901440","CLASSIFICATION_TYPE":"U","MEAN_MOTION":13.17647915,"ECCENTRICITY":0.00019793,"INCLINATION":87.9141,"RA_OF_ASC_NODE":1.251,"ARG_OF_PERICENTER":87.0895,"MEAN_ANOMALY":273.0463,"EPHEMERIS_TYPE":0,"NORAD_CAT_ID":49092,"ELEMENT_SET_NO":999,"REV_AT_EPOCH":23663,"BSTAR":0.000094754886,"MEAN_MOTION_DOT":5e-7,"MEAN_MOTION_DDOT":0},{"OBJECT_NAME":"ONEWEB-0305","OBJECT_ID":"2021-075U","EPOCH":"2026-07-09T17:09:03.807360","CLASSIFICATION_TYPE":"U","MEAN_MOTION":13.17647664,"ECCENTRICITY":0.00020186,"INCLINATION":87.9146,"RA_OF_ASC_NODE":1.3743,"ARG_OF_PERICENTER":80.3165,"MEAN_ANOMALY":279.8195,"EPHEMERIS_TYPE":0,"NORAD_CAT_ID":49093,"ELEMENT_SET_NO":999,"REV_AT_EPOCH":23657,"BSTAR":0.000046542001,"MEAN_MOTION_DOT":3.1e-7,"MEAN_MOTION_DDOT":0},{"OBJECT_NAME":"ONEWEB-0308","OBJECT_ID":"2021-075V","EPOCH":"2026-07-10T09:30:54.237312","CLASSIFICATION_TYPE":"U","MEAN_MOTION":13.12443574,"ECCENTRICITY":0.00018429,"INCLINATION":87.896,"RA_OF_ASC_NODE":346.0451,"ARG_OF_PERICENTER":97.3959,"MEAN_ANOMALY":262.7379,"EPHEMERIS_TYPE":0,"NORAD_CAT_ID":49094,"ELEMENT_SET_NO":999,"REV_AT_EPOCH":23760,"BSTAR":-0.00018278978,"MEAN_MOTION_DOT":-5.3e-7,"MEAN_MOTION_DDOT":0},{"OBJECT_NAME":"ONEWEB-0309","OBJECT_ID":"2021-075W","EPOCH":"2026-07-09T17:13:55.701120","CLASSIFICATION_TYPE":"U","MEAN_MOTION":13.17650755,"ECCENTRICITY":0.00023421,"INCLINATION":87.9137,"RA_OF_ASC_NODE":1.3801,"ARG_OF_PERICENTER":95.5376,"MEAN_ANOMALY":264.6022,"EPHEMERIS_TYPE":0,"NORAD_CAT_ID":49095,"ELEMENT_SET_NO":999,"REV_AT_EPOCH":23654,"BSTAR":0.00020182732,"MEAN_MOTION_DOT":9.1e-7,"MEAN_MOTION_DDOT":0},{"OBJECT_NAME":"ONEWEB-0310","OBJECT_ID":"2021-075X","EPOCH":"2026-07-10T09:52:52.278816","CLASSIFICATION_TYPE":"U","MEAN_MOTION":13.12443691,"ECCENTRICITY":0.00018113,"INCLINATION":87.8952,"RA_OF_ASC_NODE":346.0607,"ARG_OF_PERICENTER":95.51,"MEAN_ANOMALY":264.6235,"EPHEMERIS_TYPE":0,"NORAD_CAT_ID":49096,"ELEMENT_SET_NO":999,"REV_AT_EPOCH":23823,"BSTAR":0.0012082893,"MEAN_MOTION_DOT":0.00000447,"MEAN_MOTION_DDOT":0}]}
